OBJECT_NAME,OBJECT_ID,EPOCH,MEAN_MOTION,ECCENTRICITY,INCLINATION,RA_OF_ASC_NODE,ARG_OF_PERICENTER,MEAN_ANOMALY,EPHEMERIS_TYPE,CLASSIFICATION_TYPE,NORAD_CAT_ID,ELEMENT_SET_NO,REV_AT_EPOCH,BSTAR,MEAN_MOTION_DOT,MEAN_MOTION_DDOT
BEIDOU-3 M26 (C48),2023-207B,2026-06-20T20:31:53.727744,1.86229739,.0002952,55.7582,62.1656,321.4891,38.5283,0,U,58655,999,1689,0,-.79E-6,0
GSAT0225 (GALILEO 29),2024-079A,2026-06-19T10:45:59.205024,1.70473881,.00015339,55.1213,101.0165,302.7942,230.7595,0,U,59598,999,1335,0,-.13E-6,0
GSAT0227 (GALILEO 30),2024-079C,2026-06-19T08:22:51.740544,1.70473950,.00022017,55.1161,101.0181,52.0058,307.9926,0,U,59600,999,1340,0,-.13E-6,0
GSAT0232 (GALILEO 32),2024-167A,2026-06-21T09:19:58.463040,1.70474305,.000622,55.1837,221.1983,228.6673,158.7060,0,U,61182,999,1095,0,.29E-6,0
GSAT0226 (GALILEO 31),2024-167B,2026-06-21T07:43:09.418656,1.70474325,.0003001,55.1825,221.2072,231.0582,206.3880,0,U,61183,999,1092,0,.29E-6,0
BEIDOU-3 M25 (C47),2024-168B,2026-06-21T06:22:09.046272,1.86230113,.0003033,54.4693,302.1001,300.4472,91.7533,0,U,61186,999,1186,0,-.98E-6,0
BEIDOU-3 M27 (C49),2024-168C,2026-06-20T11:02:11.435712,1.86230118,.0001518,54.4653,302.1109,51.2333,295.9316,0,U,61187,999,931,0,-.92E-6,0
GPS BIII-7  (PRN 01),2024-242A,2026-06-20T01:54:13.834656,2.00571569,.0017493,54.8474,334.0632,4.3355,173.0364,0,U,62339,999,1131,0,-.95E-6,0
QZS-6 (QZSS/PRN 200),2025-023A,2026-06-20T09:50:21.007968,1.00270060,.0001896,0.0614,73.8005,19.1523,53.7613,0,U,62876,999,498,0,-.237E-5,0
COSMOS 2584 (704K),2025-042A,2026-06-19T22:56:24.809280,2.13103910,.00051351,65.0856,72.7078,219.8892,140.1108,0,U,63130,999,1010,0,-.37E-6,0
GPS BIII-8  (PRN 21),2025-116A,2026-06-19T19:56:38.651424,2.00575689,.000858,55.2365,31.0232,338.6796,202.2641,0,U,64202,999,792,0,-.93E-6,0
COSMOS 2596 (708K),2025-206B,2026-06-18T10:24:28.997280,2.13100598,.0010998,64.6338,314.9413,311.7055,76.8578,0,U,65590,999,594,0,-.57E-6,0
GSAT0233 (GALILEO 33),2025-302A,2026-06-19T13:54:53.251200,1.70473973,.00007672,54.3370,102.0625,220.2514,324.6772,0,U,67160,999,316,0,-.13E-6,0
GSAT0234 (GALILEO 34),2025-302C,2026-06-18T02:34:08.632704,1.70473903,.00029627,54.3376,102.1035,311.0872,230.0912,0,U,67162,999,319,0,-.12E-6,0
GPS BIII-9  (PRN 20),2026-017A,2026-06-20T04:31:41.316960,2.00571091,.0021974,55.0902,88.6347,258.6417,101.1180,0,U,67588,999,43167,0,-.26E-6,0
GPS BIII-10 (PRN 13),2026-087A,2026-06-19T09:48:38.619648,2.00570427,.00206003,54.9628,207.6996,106.9834,255.2232,0,U,68791,999,88,0,.31E-6,0
